[{"ORDINAL":"1","COMMENT":"GENERATED VIA SPACETRACK.ORG API","ORIGINATOR":"JSPOC","NORAD_CAT_ID":"30793","OBJECT_NAME":"INSAT 4B","OBJECT_TYPE":"PAYLOAD","CLASSIFICATION_TYPE":"U","INTLDES":"07007A","EPOCH":"2016-06-23 05:24:05","EPOCH_MICROSECONDS":"5152","MEAN_MOTION":"1.00265894","ECCENTRICITY":"0.0001079","INCLINATION":"0.4078","RA_OF_ASC_NODE":"89.751","ARG_OF_PERICENTER":"199.282","MEAN_ANOMALY":"157.2851","EPHEMERIS_TYPE":"0","ELEMENT_SET_NO":"999","REV_AT_EPOCH":"3400","BSTAR":"0.0001","MEAN_MOTION_DOT":"0","MEAN_MOTION_DDOT":"0","FILE":"2050724","TLE_LINE0":"0 INSAT 4B","TLE_LINE1":"1 30793U 07007A   16175.22505793  .00000000  00000-0  10000-3 0  9993","TLE_LINE2":"2 30793   0.4078  89.7510 0001079 199.2820 157.2851  1.00265894 34002","OBJECT_ID":"2007-007A","OBJECT_NUMBER":"30793","SEMIMAJOR_AXIS":"42166.383","PERIOD":"1436.181","APOGEE":"35792.798","PERIGEE":"35783.698"},{"ORDINAL":"1","COMMENT":"GENERATED VIA SPACETRACK.ORG API","ORIGINATOR":"JSPOC","NORAD_CAT_ID":"30794","OBJECT_NAME":"SKYNET 5A","OBJECT_TYPE":"PAYLOAD","CLASSIFICATION_TYPE":"U","INTLDES":"07007B","EPOCH":"2016-06-22 23:33:42","EPOCH_MICROSECONDS":"518304","MEAN_MOTION":"1.00271301","ECCENTRICITY":"0.0003286","INCLINATION":"0.0665","RA_OF_ASC_NODE":"10.3055","ARG_OF_PERICENTER":"82.0788","MEAN_ANOMALY":"267.8303","EPHEMERIS_TYPE":"0","ELEMENT_SET_NO":"999","REV_AT_EPOCH":"3409","BSTAR":"0","MEAN_MOTION_DOT":"-2.72e-06","MEAN_MOTION_DDOT":"0","FILE":"2050612","TLE_LINE0":"0 SKYNET 5A","TLE_LINE1":"1 30794U 07007B   16174.98174211 -.00000272  00000-0  00000+0 0  9990","TLE_LINE2":"2 30794   0.0665  10.3055 0003286  82.0788 267.8303  1.00271301 34098","OBJECT_ID":"2007-007B","OBJECT_NUMBER":"30794","SEMIMAJOR_AXIS":"42164.867","PERIOD":"1436.103","APOGEE":"35800.588","PERIGEE":"35772.877"},{"ORDINAL":"1","COMMENT":"GENERATED VIA SPACETRACK.ORG API","ORIGINATOR":"JSPOC","NORAD_CAT_ID":"30797","OBJECT_NAME":"THEMIS D","OBJECT_TYPE":"PAYLOAD","CLASSIFICATION_TYPE":"U","INTLDES":"07004D","EPOCH":"2016-06-22 14:44:59","EPOCH_MICROSECONDS":"999712","MEAN_MOTION":"1.00229001","ECCENTRICITY":"0.8275784","INCLINATION":"4.2123","RA_OF_ASC_NODE":"264.3088","ARG_OF_PERICENTER":"21.6814","MEAN_ANOMALY":"287.3356","EPHEMERIS_TYPE":"0","ELEMENT_SET_NO":"999","REV_AT_EPOCH":"3387","BSTAR":"-0.070662","MEAN_MOTION_DOT":"-6.09e-06","MEAN_MOTION_DDOT":"0","FILE":"2050382","TLE_LINE0":"0 THEMIS D","TLE_LINE1":"1 30797U 07004D   16174.61458333 -.00000609  00000-0 -70662-1 0  9998","TLE_LINE2":"2 30797   4.2123 264.3088 8275784  21.6814 287.3356  1.00229001 33874","OBJECT_ID":"2007-004D","OBJECT_NUMBER":"30797","SEMIMAJOR_AXIS":"42176.730","PERIOD":"1436.709","APOGEE":"70703.145","PERIGEE":"894.044"},{"ORDINAL":"1","COMMENT":"GENERATED VIA SPACETRACK.ORG API","ORIGINATOR":"JSPOC","NORAD_CAT_ID":"30798","OBJECT_NAME":"THEMIS E","OBJECT_TYPE":"PAYLOAD","CLASSIFICATION_TYPE":"U","INTLDES":"07004E","EPOCH":"2016-06-24 04:47:59","EPOCH_MICROSECONDS":"161056","MEAN_MOTION":"1.00263013","ECCENTRICITY":"0.8268665","INCLINATION":"5.7031","RA_OF_ASC_NODE":"279.0603","ARG_OF_PERICENTER":"7.98","MEAN_ANOMALY":"0.5681","EPHEMERIS_TYPE":"0","ELEMENT_SET_NO":"999","REV_AT_EPOCH":"3404","BSTAR":"-0.10841","MEAN_MOTION_DOT":"-5.76e-06","MEAN_MOTION_DDOT":"0","FILE":"2050588","TLE_LINE0":"0 THEMIS E","TLE_LINE1":"1 30798U 07004E   16176.19999029 -.00000576  00000-0 -10841+0 0  9990","TLE_LINE2":"2 30798   5.7031 279.0603 8268665   7.9800   0.5681  1.00263013 34044","OBJECT_ID":"2007-004E","OBJECT_NUMBER":"30798","SEMIMAJOR_AXIS":"42167.191","PERIOD":"1436.222","APOGEE":"70655.694","PERIGEE":"922.418"},{"ORDINAL":"1","COMMENT":"GENERATED VIA SPACETRACK.ORG API","ORIGINATOR":"JSPOC","NORAD_CAT_ID":"31102","OBJECT_NAME":"ANIK F3","OBJECT_TYPE":"PAYLOAD","CLASSIFICATION_TYPE":"U","INTLDES":"07009A","EPOCH":"2016-06-23 08:25:24","EPOCH_MICROSECONDS":"658176","MEAN_MOTION":"1.00272729","ECCENTRICITY":"0.0002413","INCLINATION":"0.0236","RA_OF_ASC_NODE":"71.8991","ARG_OF_PERICENTER":"18.5165","MEAN_ANOMALY":"189.1811","EPHEMERIS_TYPE":"0","ELEMENT_SET_NO":"999","REV_AT_EPOCH":"3377","BSTAR":"0","MEAN_MOTION_DOT":"-2e-08","MEAN_MOTION_DDOT":"0","FILE":"2050643","TLE_LINE0":"0 ANIK F3","TLE_LINE1":"1 31102U 07009A   16175.35097984 -.00000002  00000-0  00000+0 0  9990","TLE_LINE2":"2 31102   0.0236  71.8991 0002413  18.5165 189.1811  1.00272729 33770","OBJECT_ID":"2007-009A","OBJECT_NUMBER":"31102","SEMIMAJOR_AXIS":"42164.467","PERIOD":"1436.083","APOGEE":"35796.506","PERIGEE":"35776.158"},{"ORDINAL":"1","COMMENT":"GENERATED VIA SPACETRACK.ORG API","ORIGINATOR":"JSPOC","NORAD_CAT_ID":"31113","OBJECT_NAME":"HAIYANG 1B","OBJECT_TYPE":"PAYLOAD","CLASSIFICATION_TYPE":"U","INTLDES":"07010A","EPOCH":"2016-06-23 10:39:13","EPOCH_MICROSECONDS":"120704","MEAN_MOTION":"14.30137186","ECCENTRICITY":"0.0013794","INCLINATION":"98.6095","RA_OF_ASC_NODE":"229.3302","ARG_OF_PERICENTER":"174.455","MEAN_ANOMALY":"185.6785","EPHEMERIS_TYPE":"0","ELEMENT_SET_NO":"999","REV_AT_EPOCH":"48019","BSTAR":"4.042e-05","MEAN_MOTION_DOT":"6.1e-07","MEAN_MOTION_DDOT":"0","FILE":"2050691","TLE_LINE0":"0 HAIYANG 1B","TLE_LINE1":"1 31113U 07010A   16175.44390186  .00000061  00000-0  40420-4 0  9993","TLE_LINE2":"2 31113  98.6095 229.3302 0013794 174.4550 185.6785 14.30137186480195","OBJECT_ID":"2007-010A","OBJECT_NUMBER":"31113","SEMIMAJOR_AXIS":"7169.409","PERIOD":"100.689","APOGEE":"801.163","PERIGEE":"781.384"},{"ORDINAL":"1","COMMENT":"GENERATED VIA SPACETRACK.ORG API","ORIGINATOR":"JSPOC","NORAD_CAT_ID":"31115","OBJECT_NAME":"BEIDOU M1","OBJECT_TYPE":"PAYLOAD","CLASSIFICATION_TYPE":"U","INTLDES":"07011A","EPOCH":"2016-06-17 22:53:07","EPOCH_MICROSECONDS":"963296","MEAN_MOTION":"1.77348485","ECCENTRICITY":"8.61e-05","INCLINATION":"53.4005","RA_OF_ASC_NODE":"339.5031","ARG_OF_PERICENTER":"257.4809","MEAN_ANOMALY":"102.5119","EPHEMERIS_TYPE":"0","ELEMENT_SET_NO":"999","REV_AT_EPOCH":"6164","BSTAR":"0","MEAN_MOTION_DOT":"-6.8e-07","MEAN_MOTION_DDOT":"0","FILE":"2048597","TLE_LINE0":"0 BEIDOU M1","TLE_LINE1":"1 31115U 07011A   16169.95356439 -.00000068  00000-0  00000+0 0  9991","TLE_LINE2":"2 31115  53.4005 339.5031 0000861 257.4809 102.5119  1.77348485 61647","OBJECT_ID":"2007-011A","OBJECT_NUMBER":"31115","SEMIMAJOR_AXIS":"28830.368","PERIOD":"811.960","APOGEE":"22454.715","PERIGEE":"22449.750"},{"ORDINAL":"1","COMMENT":"GENERATED VIA SPACETRACK.ORG API","ORIGINATOR":"JSPOC","NORAD_CAT_ID":"31117","OBJECT_NAME":"EGYPTSAT 1","OBJECT_TYPE":"PAYLOAD","CLASSIFICATION_TYPE":"U","INTLDES":"07012A","EPOCH":"2016-06-23 09:09:24","EPOCH_MICROSECONDS":"164352","MEAN_MOTION":"14.72577789","ECCENTRICITY":"0.000493","INCLINATION":"97.7027","RA_OF_ASC_NODE":"199.684","ARG_OF_PERICENTER":"339.6848","MEAN_ANOMALY":"20.417","EPHEMERIS_TYPE":"0","ELEMENT_SET_NO":"999","REV_AT_EPOCH":"49314","BSTAR":"3.8682e-05","MEAN_MOTION_DOT":"2e-06","MEAN_MOTION_DDOT":"0","FILE":"2050692","TLE_LINE0":"0 EGYPTSAT 1","TLE_LINE1":"1 31117U 07012A   16175.38152968  .00000200  00000-0  38682-4 0  9998","TLE_LINE2":"2 31117  97.7027 199.6840 0004930 339.6848  20.4170 14.72577789493143","OBJECT_ID":"2007-012A","OBJECT_NUMBER":"31117","SEMIMAJOR_AXIS":"7030.987","PERIOD":"97.787","APOGEE":"656.319","PERIGEE":"649.386"},{"ORDINAL":"1","COMMENT":"GENERATED VIA SPACETRACK.ORG API","ORIGINATOR":"JSPOC","NORAD_CAT_ID":"31118","OBJECT_NAME":"SAUDISAT 3","OBJECT_TYPE":"PAYLOAD","CLASSIFICATION_TYPE":"U","INTLDES":"07012B","EPOCH":"2016-06-23 09:20:31","EPOCH_MICROSECONDS":"619040","MEAN_MOTION":"14.69004348","ECCENTRICITY":"0.0014965","INCLINATION":"97.7182","RA_OF_ASC_NODE":"182.4178","ARG_OF_PERICENTER":"344.4291","MEAN_ANOMALY":"15.6458","EPHEMERIS_TYPE":"0","ELEMENT_SET_NO":"999","REV_AT_EPOCH":"49233","BSTAR":"1.5107e-05","MEAN_MOTION_DOT":"4.3e-07","MEAN_MOTION_DDOT":"0","FILE":"2050664","TLE_LINE0":"0 SAUDISAT 3","TLE_LINE1":"1 31118U 07012B   16175.38925485  .00000043  00000-0  15107-4 0  9993","TLE_LINE2":"2 31118  97.7182 182.4178 0014965 344.4291  15.6458 14.69004348492332","OBJECT_ID":"2007-012B","OBJECT_NUMBER":"31118","SEMIMAJOR_AXIS":"7042.385","PERIOD":"98.025","APOGEE":"674.789","PERIGEE":"653.711"},{"ORDINAL":"1","COMMENT":"GENERATED VIA SPACETRACK.ORG API","ORIGINATOR":"JSPOC","NORAD_CAT_ID":"31119","OBJECT_NAME":"SAUDICOMSAT 7","OBJECT_TYPE":"PAYLOAD","CLASSIFICATION_TYPE":"U","INTLDES":"07012C","EPOCH":"2016-06-22 22:17:09","EPOCH_MICROSECONDS":"524544","MEAN_MOTION":"14.6148216","ECCENTRICITY":"0.0061606","INCLINATION":"97.8975","RA_OF_ASC_NODE":"146.925","ARG_OF_PERICENTER":"113.0726","MEAN_ANOMALY":"247.6986","EPHEMERIS_TYPE":"0","ELEMENT_SET_NO":"999","REV_AT_EPOCH":"48948","BSTAR":"2.5202e-05","MEAN_MOTION_DOT":"8.2e-07","MEAN_MOTION_DDOT":"0","FILE":"2050540","TLE_LINE0":"0 SAUDICOMSAT 7","TLE_LINE1":"1 31119U 07012C   16174.92858246  .00000082  00000-0  25202-4 0  9993","TLE_LINE2":"2 31119  97.8975 146.9250 0061606 113.0726 247.6986 14.61482160489486","OBJECT_ID":"2007-012C","OBJECT_NUMBER":"31119","SEMIMAJOR_AXIS":"7066.529","PERIOD":"98.530","APOGEE":"731.928","PERIGEE":"644.860"},{"ORDINAL":"1","COMMENT":"GENERATED VIA SPACETRACK.ORG API","ORIGINATOR":"JSPOC","NORAD_CAT_ID":"31121","OBJECT_NAME":"SAUDICOMSAT 6","OBJECT_TYPE":"PAYLOAD","CLASSIFICATION_TYPE":"U","INTLDES":"07012E","EPOCH":"2016-06-23 03:54:17","EPOCH_MICROSECONDS":"26848","MEAN_MOTION":"14.58287325","ECCENTRICITY":"0.0077057","INCLINATION":"97.963","RA_OF_ASC_NODE":"138.3611","ARG_OF_PERICENTER":"168.4617","MEAN_ANOMALY":"191.8372","EPHEMERIS_TYPE":"0","ELEMENT_SET_NO":"999","REV_AT_EPOCH":"48847","BSTAR":"2.1485e-05","MEAN_MOTION_DOT":"5.6e-07","MEAN_MOTION_DDOT":"0","FILE":"2050547","TLE_LINE0":"0 SAUDICOMSAT 6","TLE_LINE1":"1 31121U 07012E   16175.16269707  .00000056  00000-0  21485-4 0  9991","TLE_LINE2":"2 31121  97.9630 138.3611 0077057 168.4617 191.8372 14.58287325488473","OBJECT_ID":"2007-012E","OBJECT_NUMBER":"31121","SEMIMAJOR_AXIS":"7076.846","PERIOD":"98.745","APOGEE":"753.243","PERIGEE":"644.179"}]